ONEWEB-0018             
1 45434U 20020L   24180.96010658  .00000164  00000+0  42815-3 0  9997
2 45434  87.8963 163.9957 0002124  84.4885 275.6485 13.11413520208490
ONEWEB-0083             
1 45435U 20020M   24180.94994868  .00000473  00000+0  12983-2 0  9995
2 45435  87.8965 163.9790 0002002  85.1844 274.9513 13.11415596208530
ONEWEB-0095             
1 45436U 20020N   24180.94160119  .00000567  00000+0  15633-2 0  9999
2 45436  87.8963 164.0150 0001450 108.1421 251.9864 13.11417551208531
ONEWEB-0092             
1 45437U 20020P   24181.21357565 -.00000482  00000+0 -13946-2 0  9997
2 45437  87.8966 163.9430 0001925  95.7618 264.3729 13.11416258208687
ONEWEB-0085             
1 45438U 20020Q   24180.94316455  .00000567  00000+0  15627-2 0  9990
2 45438  87.8966 164.0038 0002153  85.6470 274.4904 13.11416206208536
ONEWEB-0096             
1 45439U 20020R   24180.95163376  .00000460  00000+0  12625-2 0  9991
2 45439  87.8963 163.9729 0002284  85.2646 274.8742 13.11414466208524
ONEWEB-0037             
1 45440U 20020S   24181.00928493  .00000288  00000+0  77548-3 0  9993
2 45440  87.8960 163.9448 0002018  90.5013 269.6347 13.11418207208578
ONEWEB-0042             
1 45441U 20020T   24180.94132229  .00000536  00000+0  14775-2 0  9998
2 45441  87.8963 163.9890 0002172  86.8427 273.2950 13.11417274208520
