<?xml version="1.0" encoding="UTF-8"?>
<ndm xmlns:xsi="http://www.w3.org/2001/XMLSchema-instance" xsi:noNamespaceSchemaLocation="https://sanaregistry.org/r/ndmxml_unqualified/ndmxml-2.0.0-master-2.0.xsd">
<omm id="CCSDS_OMM_VERS" version="2.0">
<header><CREATION_DATE/><ORIGINATOR/></header><body><segment><metadata><OBJECT_NAME>ONEWEB-0018</OBJECT_NAME><OBJECT_ID>2020-020L</OBJECT_ID><CENTER_NAME>EARTH</CENTER_NAME><REF_FRAME>TEME</REF_FRAME><TIME_SYSTEM>UTC</TIME_SYSTEM><MEAN_ELEMENT_THEORY>SGP4</MEAN_ELEMENT_THEORY></metadata><data><meanElements><EPOCH>2024-06-28T23:02:33.208512</EPOCH><MEAN_MOTION>13.11413520</MEAN_MOTION><ECCENTRICITY>.0002124</ECCENTRICITY><INCLINATION>87.8963</INCLINATION><RA_OF_ASC_NODE>163.9957</RA_OF_ASC_NODE><ARG_OF_PERICENTER>84.4885</ARG_OF_PERICENTER><MEAN_ANOMALY>275.6485</MEAN_ANOMALY></meanElements><tleParameters><EPHEMERIS_TYPE>0</EPHEMERIS_TYPE><CLASSIFICATION_TYPE>U</CLASSIFICATION_TYPE><NORAD_CAT_ID>45434</NORAD_CAT_ID><ELEMENT_SET_NO>999</ELEMENT_SET_NO><REV_AT_EPOCH>20849</REV_AT_EPOCH><BSTAR>.42815E-3</BSTAR><MEAN_MOTION_DOT>.164E-5</MEAN_MOTION_DOT><MEAN_MOTION_DDOT>0</MEAN_MOTION_DDOT></tleParameters></data></segment></body></omm>
<omm id="CCSDS_OMM_VERS" version="2.0">
<header><CREATION_DATE/><ORIGINATOR/></header><body><segment><metadata><OBJECT_NAME>ONEWEB-0083</OBJECT_NAME><OBJECT_ID>2020-020M</OBJECT_ID><CENTER_NAME>EARTH</CENTER_NAME><REF_FRAME>TEME</REF_FRAME><TIME_SYSTEM>UTC</TIME_SYSTEM><MEAN_ELEMENT_THEORY>SGP4</MEAN_ELEMENT_THEORY></metadata><data><meanElements><EPOCH>2024-06-28T22:47:55.565952</EPOCH><MEAN_MOTION>13.11415596</MEAN_MOTION><ECCENTRICITY>.0002002</ECCENTRICITY><INCLINATION>87.8965</INCLINATION><RA_OF_ASC_NODE>163.9790</RA_OF_ASC_NODE><ARG_OF_PERICENTER>85.1844</ARG_OF_PERICENTER><MEAN_ANOMALY>274.9513</MEAN_ANOMALY></meanElements><tleParameters><EPHEMERIS_TYPE>0</EPHEMERIS_TYPE><CLASSIFICATION_TYPE>U</CLASSIFICATION_TYPE><NORAD_CAT_ID>45435</NORAD_CAT_ID><ELEMENT_SET_NO>999</ELEMENT_SET_NO><REV_AT_EPOCH>20853</REV_AT_EPOCH><BSTAR>.12983E-2</BSTAR><MEAN_MOTION_DOT>.473E-5</MEAN_MOTION_DOT><MEAN_MOTION_DDOT>0</MEAN_MOTION_DDOT></tleParameters></data></segment></body></omm>
<omm id="CCSDS_OMM_VERS" version="2.0">
<header><CREATION_DATE/><ORIGINATOR/></header><body><segment><metadata><OBJECT_NAME>ONEWEB-0095</OBJECT_NAME><OBJECT_ID>2020-020N</OBJECT_ID><CENTER_NAME>EARTH</CENTER_NAME><REF_FRAME>TEME</REF_FRAME><TIME_SYSTEM>UTC</TIME_SYSTEM><MEAN_ELEMENT_THEORY>SGP4</MEAN_ELEMENT_THEORY></metadata><data><meanElements><EPOCH>2024-06-28T22:35:54.342816</EPOCH><MEAN_MOTION>13.11417551</MEAN_MOTION><ECCENTRICITY>.000145</ECCENTRICITY><INCLINATION>87.8963</INCLINATION><RA_OF_ASC_NODE>164.0150</RA_OF_ASC_NODE><ARG_OF_PERICENTER>108.1421</ARG_OF_PERICENTER><MEAN_ANOMALY>251.9864</MEAN_ANOMALY></meanElements><tleParameters><EPHEMERIS_TYPE>0</EPHEMERIS_TYPE><CLASSIFICATION_TYPE>U</CLASSIFICATION_TYPE><NORAD_CAT_ID>45436</NORAD_CAT_ID><ELEMENT_SET_NO>999</ELEMENT_SET_NO><REV_AT_EPOCH>20853</REV_AT_EPOCH><BSTAR>.15633E-2</BSTAR><MEAN_MOTION_DOT>.567E-5</MEAN_MOTION_DOT><MEAN_MOTION_DDOT>0</MEAN_MOTION_DDOT></tleParameters></data></segment></body></omm>
<omm id="CCSDS_OMM_VERS" version="2.0">
<header><CREATION_DATE/><ORIGINATOR/></header><body><segment><metadata><OBJECT_NAME>ONEWEB-0092</OBJECT_NAME><OBJECT_ID>2020-020P</OBJECT_ID><CENTER_NAME>EARTH</CENTER_NAME><REF_FRAME>TEME</REF_FRAME><TIME_SYSTEM>UTC</TIME_SYSTEM><MEAN_ELEMENT_THEORY>SGP4</MEAN_ELEMENT_THEORY></metadata><data><meanElements><EPOCH>2024-06-29T05:07:32.936160</EPOCH><MEAN_MOTION>13.11416258</MEAN_MOTION><ECCENTRICITY>.0001925</ECCENTRICITY><INCLINATION>87.8966</INCLINATION><RA_OF_ASC_NODE>163.9430</RA_OF_ASC_NODE><ARG_OF_PERICENTER>95.7618</ARG_OF_PERICENTER><MEAN_ANOMALY>264.3729</MEAN_ANOMALY></meanElements><tleParameters><EPHEMERIS_TYPE>0</EPHEMERIS_TYPE><CLASSIFICATION_TYPE>U</CLASSIFICATION_TYPE><NORAD_CAT_ID>45437</NORAD_CAT_ID><ELEMENT_SET_NO>999</ELEMENT_SET_NO><REV_AT_EPOCH>20868</REV_AT_EPOCH><BSTAR>-.13946E-2</BSTAR><MEAN_MOTION_DOT>-.482E-5</MEAN_MOTION_DOT><MEAN_MOTION_DDOT>0</MEAN_MOTION_DDOT></tleParameters></data></segment></body></omm>
<omm id="CCSDS_OMM_VERS" version="2.0">
<header><CREATION_DATE/><ORIGINATOR/></header><body><segment><metadata><OBJECT_NAME>ONEWEB-0085</OBJECT_NAME><OBJECT_ID>2020-020Q</OBJECT_ID><CENTER_NAME>EARTH</CENTER_NAME><REF_FRAME>TEME</REF_FRAME><TIME_SYSTEM>UTC</TIME_SYSTEM><MEAN_ELEMENT_THEORY>SGP4</MEAN_ELEMENT_THEORY></metadata><data><meanElements><EPOCH>2024-06-28T22:38:09.417120</EPOCH><MEAN_MOTION>13.11416206</MEAN_MOTION><ECCENTRICITY>.0002153</ECCENTRICITY><INCLINATION>87.8966</INCLINATION><RA_OF_ASC_NODE>164.0038</RA_OF_ASC_NODE><ARG_OF_PERICENTER>85.6470</ARG_OF_PERICENTER><MEAN_ANOMALY>274.4904</MEAN_ANOMALY></meanElements><tleParameters><EPHEMERIS_TYPE>0</EPHEMERIS_TYPE><CLASSIFICATION_TYPE>U</CLASSIFICATION_TYPE><NORAD_CAT_ID>45438</NORAD_CAT_ID><ELEMENT_SET_NO>999</ELEMENT_SET_NO><REV_AT_EPOCH>20853</REV_AT_EPOCH><BSTAR>.15627E-2</BSTAR><MEAN_MOTION_DOT>.567E-5</MEAN_MOTION_DOT><MEAN_MOTION_DDOT>0</MEAN_MOTION_DDOT></tleParameters></data></segment></body></omm>
<omm id="CCSDS_OMM_VERS" version="2.0">
<header><CREATION_DATE/><ORIGINATOR/></header><body><segment><metadata><OBJECT_NAME>ONEWEB-0096</OBJECT_NAME><OBJECT_ID>2020-020R</OBJECT_ID><CENTER_NAME>EARTH</CENTER_NAME><REF_FRAME>TEME</REF_FRAME><TIME_SYSTEM>UTC</TIME_SYSTEM><MEAN_ELEMENT_THEORY>SGP4</MEAN_ELEMENT_THEORY></metadata><data><meanElements><EPOCH>2024-06-28T22:50:21.156864</EPOCH><MEAN_MOTION>13.11414466</MEAN_MOTION><ECCENTRICITY>.0002284</ECCENTRICITY><INCLINATION>87.8963</INCLINATION><RA_OF_ASC_NODE>163.9729</RA_OF_ASC_NODE><ARG_OF_PERICENTER>85.2646</ARG_OF_PERICENTER><MEAN_ANOMALY>274.8742</MEAN_ANOMALY></meanElements><tleParameters><EPHEMERIS_TYPE>0</EPHEMERIS_TYPE><CLASSIFICATION_TYPE>U</CLASSIFICATION_TYPE><NORAD_CAT_ID>45439</NORAD_CAT_ID><ELEMENT_SET_NO>999</ELEMENT_SET_NO><REV_AT_EPOCH>20852</REV_AT_EPOCH><BSTAR>.12625E-2</BSTAR><MEAN_MOTION_DOT>.46E-5</MEAN_MOTION_DOT><MEAN_MOTION_DDOT>0</MEAN_MOTION_DDOT></tleParameters></data></segment></body></omm>
<omm id="CCSDS_OMM_VERS" version="2.0">
<header><CREATION_DATE/><ORIGINATOR/></header><body><segment><metadata><OBJECT_NAME>ONEWEB-0037</OBJECT_NAME><OBJECT_ID>2020-020S</OBJECT_ID><CENTER_NAME>EARTH</CENTER_NAME><REF_FRAME>TEME</REF_FRAME><TIME_SYSTEM>UTC</TIME_SYSTEM><MEAN_ELEMENT_THEORY>SGP4</MEAN_ELEMENT_THEORY></metadata><data><meanElements><EPOCH>2024-06-29T00:13:22.217952</EPOCH><MEAN_MOTION>13.11418207</MEAN_MOTION><ECCENTRICITY>.0002018</ECCENTRICITY><INCLINATION>87.8960</INCLINATION><RA_OF_ASC_NODE>163.9448</RA_OF_ASC_NODE><ARG_OF_PERICENTER>90.5013</ARG_OF_PERICENTER><MEAN_ANOMALY>269.6347</MEAN_ANOMALY></meanElements><tleParameters><EPHEMERIS_TYPE>0</EPHEMERIS_TYPE><CLASSIFICATION_TYPE>U</CLASSIFICATION_TYPE><NORAD_CAT_ID>45440</NORAD_CAT_ID><ELEMENT_SET_NO>999</ELEMENT_SET_NO><REV_AT_EPOCH>20857</REV_AT_EPOCH><BSTAR>.77548E-3</BSTAR><MEAN_MOTION_DOT>.288E-5</MEAN_MOTION_DOT><MEAN_MOTION_DDOT>0</MEAN_MOTION_DDOT></tleParameters></data></segment></body></omm>
<omm id="CCSDS_OMM_VERS" version="2.0">
<header><CREATION_DATE/><ORIGINATOR/></header><body><segment><metadata><OBJECT_NAME>ONEWEB-0042</OBJECT_NAME><OBJECT_ID>2020-020T</OBJECT_ID><CENTER_NAME>EARTH</CENTER_NAME><REF_FRAME>TEME</REF_FRAME><TIME_SYSTEM>UTC</TIME_SYSTEM><MEAN_ELEMENT_THEORY>SGP4</MEAN_ELEMENT_THEORY></metadata><data><meanElements><EPOCH>2024-06-28T22:35:30.245856</EPOCH><MEAN_MOTION>13.11417274</MEAN_MOTION><ECCENTRICITY>.0002172</ECCENTRICITY><INCLINATION>87.8963</INCLINATION><RA_OF_ASC_NODE>163.9890</RA_OF_ASC_NODE><ARG_OF_PERICENTER>86.8427</ARG_OF_PERICENTER><MEAN_ANOMALY>273.2950</MEAN_ANOMALY></meanElements><tleParameters><EPHEMERIS_TYPE>0</EPHEMERIS_TYPE><CLASSIFICATION_TYPE>U</CLASSIFICATION_TYPE><NORAD_CAT_ID>45441</NORAD_CAT_ID><ELEMENT_SET_NO>999</ELEMENT_SET_NO><REV_AT_EPOCH>20852</REV_AT_EPOCH><BSTAR>.14775E-2</BSTAR><MEAN_MOTION_DOT>.536E-5</MEAN_MOTION_DOT><MEAN_MOTION_DDOT>0</MEAN_MOTION_DDOT></tleParameters></data></segment></body></omm>

</ndm>
